ONEWEB-0339             
1 49205U 21083V   24053.47872186 -.00000058  00000+0 -19249-3 0  9993
2 49205  87.8984 128.5873 0001739 103.9391 256.1931 13.13471876119870
ONEWEB-0340             
1 49206U 21083W   24053.49060050  .00000130  00000+0  29586-3 0  9999
2 49206  87.9236 143.7649 0001837 111.5026 248.6302 13.18686982118510
ONEWEB-0341             
1 49207U 21083X   24053.27086133 -.00001988  00000+0 -50760-2 0  9997
2 49207  87.9234 143.8235 0001143 104.5104 255.6155 13.18695591118509
ONEWEB-0343             
1 49209U 21083Z   24053.49377181  .00000080  00000+0  16983-3 0  9999
2 49209  87.9227 143.7936 0001209  98.0244 262.1025 13.18688193118582
ONEWEB-0344             
1 49210U 21083AA  24053.59774776 -.00000022  00000+0 -95004-4 0  9993
2 49210  87.8986 128.5780 0001880 111.8931 248.2398 13.13470505119899
ONEWEB-0345             
1 49211U 21083AB  24053.61519777 -.00000308  00000+0 -87844-3 0  9994
2 49211  87.8982 128.5527 0001511 119.9062 240.2218 13.13468138119904
